[
    {
        "Altitude(m)": 607897.6059711915,
        "Argument of Periapsis(deg)": 0.0,
        "Eccentricity": 0.0,
        "Inclination(deg)": 60.0,
        "Latitude(deg)": -14.292885670400238,
        "Longitude(deg)": 81.61876446668836,
        "Mean Anomaly(deg)": -16.363600000000012,
        "RAAN(deg)": 190.0,
        "Satellite Name": "Test1 857",
        "Satellite Number": 857,
        "Semi-Major Axis(m)": 6980739.136638005,
        "Time(s)": 0
    },
    {
        "Altitude(m)": 607750.8075232803,
        "Argument of Periapsis(deg)": 0.00010418945913296404,
        "Eccentricity": 0.0,
        "Inclination(deg)": 60.0,
        "Latitude(deg)": -13.758726882482476,
        "Longitude(deg)": 81.90583297027247,
        "Mean Anomaly(deg)": -15.743493854538157,
        "RAAN(deg)": 189.99957995086027,
        "Satellite Name": "Test1 857",
        "Satellite Number": 857,
        "Semi-Major Axis(m)": 6980739.136638005,
        "Time(s)": 10
    }
]